#dP2023  7  9  0  0  0.00000000      96 __u+U ITR00 EXT  IAC
## 2270      0.00000000   900.00000000 60134 0.0000000000000
+  116   C06C08C09C10C11C12C13C14C16C19C20C21C22C23C24C25C26
+        C27C28C29C30C32C33C34C35C36C37C38C39C40C41C42C43C44
+        C45C46E02E03E04E05E07E08E09E10E11E12E13E14E15E18E19
+        E21E24E25E26E27E30E31E34E36G01G02G03G04G05G06G07G08
+        G09G10G11G12G13G14G15G16G18G19G20G21G22G23G24G25G26
+        G27G28G29G30G31G32J02J03J04R01R02R03R04R05R07R08R09
+        R11R12R13R14R15R16R17R18R19R20R21R22R24R25  0  0  0
++        10  8 10 10  7  8  8  9 10  9  9  8 10  8  8  8  8
++         8  7  9  7  9  9  7  9  8  9  9 10 10  8  9  7  8
++         7  9  7  8  8  8  7  7  7  7  8  8  8  7  7  8  8
++         8  8  7  6  8  7  8  8  8  7  7  6  7  9  8  7  8
++         6  7  7  7  9  7  8  8  8  7  7  7  7  9  7  8  8
++         9  6  7  7  6  7 10  9 11  9  7  8  6  8  8 10  7
++         8  8  7  8  7  8  9  7  8  8  8  9  9  7  0  0  0
%c M  cc GPS ccc cccc cccc cccc cccc ccccc ccccc ccccc ccccc
%c cc cc ccc ccc cccc cccc cccc cccc ccccc ccccc ccccc ccccc
%f  0.0000000  0.000000000  0.00000000000  0.000000000000000
%f  0.0000000  0.000000000  0.00000000000  0.000000000000000
%i    0    0    0    0      0      0      0      0         0
%i    0    0    0    0      0      0      0      0         0
/* IAC                                ULTRA-RAPID PREDICTION
/* S/V CLOCKS ARE ALIGNED TO GNSS TIME                      
/* G:C1WC2W R:C1PC2P E:C1XC5X C:C2IC6I J:C1CC2S             
/* PCV:IGS20_2247 OL/AL:FES2004  NONE     YN ORB:CoN CLK:CoN
*  2023 07 09  3 30  0.00000000
PC06 -10086.080475  22792.094655 -33991.650075    -42.428536
PC08    408.491964  36881.456586  20583.661688    434.439466
PC09   1091.492107  25089.328601 -33364.331446    438.901153
PC10  -9243.974162  37443.775984  16684.788853   -109.020116
PC11    -34.805845 -15362.690706 -23235.298044    716.325837
PC12  19891.893178 -10612.626256 -16423.062264    773.552606
PC13   4930.240617  39328.884567  14893.044865    311.909478
PC14   4847.396670 -24888.684243  11737.414901    534.986133
PC16 -10363.805346  22066.915898 -34160.610480     13.185909
PC19   2971.592555  20493.735435 -18671.086611   -936.269335
PC20 -10764.097716  25312.514590  -4584.890896    448.842004
PC21  19161.702444 -15191.213447 -13461.612702   -932.423994
PC22  15756.011830   3597.477721 -22757.257765   -404.675372
PC23 -19632.584546 -15018.012680 -12940.511671   -951.378139
PC24   3624.035854 -20436.019894  18640.989840    152.121568
PC25 -12590.426614 -24688.159643   3184.738389    164.036016
PC26  15749.896491  -5228.120827  22427.468686   -146.107461
PC27 -25418.242717   6522.184021   9480.853529    166.868066
PC28 -26640.794121  -4794.379839  -6771.792077    124.299503
PC29  11789.469226  14204.052400  20920.097594    144.759946
PC30 -10413.882343  15086.753399  21033.959402     -2.021396
PC32 -19058.355055  15207.834647  13570.161598   -540.783658
PC33  -3026.198235 -20587.877067  18605.990671   -909.741468
PC34   8877.458795 -15410.980272 -21515.901312    210.694839
PC35  26631.980222   4123.011197   7166.791713    592.267612
PC36  11526.068137  25114.466516  -3882.515121   -339.426010
PC37 -16345.761947   3834.546023 -22269.336178   -791.387524
PC38  -5610.726663  32908.982040  25865.227945     90.355418
PC39 -17241.929184  20320.088002 -32677.473536     -3.725629
PC40 -22683.545281  33916.305292  10046.395221    -28.807066
PC41 -15456.812024  -4358.530763  22870.769009   -906.038519
PC42  11614.159301 -25186.914479   3266.820377   -619.123030
PC43 -10851.331824 -14593.679272 -21184.008074     29.848557
PC44  25215.989037  -7454.670245  -9323.209898    162.893193
PC45  19630.512064  14632.358882  13414.271342   -120.227254
PC46  -2358.959042  21304.852276 -17882.289590    -67.488772
PE02 -14651.930935  15479.648817 -20542.920871     48.681750
PE03 -25269.481235  15267.387809  -2014.329137    -34.207134
PE04  10899.497031 -20520.456889  18350.758973   -162.546546
PE05 -25048.186535    989.596545  15743.325591     -2.142653
PE07   9865.832512  13936.668153 -24171.062560    -58.586301
PE08 -11282.481215  20445.168420 -18178.418917   -111.505761
PE09  -9626.640502 -13916.458506  24290.707363    -78.105198
PE10 -10043.236841 -20406.490679 -18954.506400   -547.133673
PE11 -19252.245940 -19866.780002 -10560.059155   2437.302790
PE12    -19.831387 -17924.667255 -23570.029436   -611.007048
PE13  18760.065314  19952.932134  11221.129385    -19.320064
PE14 -19408.245993  12846.964593   4897.346035    276.904964
PE15   -311.133425  17696.537404  23722.156853    -35.640285
PE18  20996.350885 -20776.251544 -13350.763432    274.417651
PE19  26240.247619 -13691.591437   -470.680218  -2118.571283
PE21  16326.722116   5712.248361  24022.943588   -539.635530
PE24  -8223.664935 -25176.081904 -13211.406492   -199.202152
PE25 -16264.637234  -6123.348422 -23952.137780   -608.013783
PE26  26600.660809   9958.810932  -8344.046887    157.534451
PE27   8664.594471  24737.356939  13762.843884    -94.558097
PE30  -4455.534954  28843.942690  -4964.207025   -320.401186
PE31   4028.560024 -28979.249089   4508.466505      0.005981
PE34 -18908.370252   5162.205521  22164.415986    -55.086217
PE36 -26589.949878 -10511.710072   7662.198498    -83.163583
PG01 -22166.389141 -14959.220619    298.078805    173.838256
PG02 -20813.439143 -15577.143369  -5304.419821   -578.040319
PG03 -12606.810076 -12177.175291  19852.175049   -240.094957
PG04 -20249.205403  -3626.333086  16876.003060     90.474317
PG05   5748.935480  24392.368241  -8807.449739   -134.178222
PG06  -8107.335820  12165.991740  22232.768352    579.562124
PG07 -22534.860339  -3263.178690 -13597.305466    130.402245
PG08 -10615.271146 -11504.273277 -21568.935010   -131.259161
PG09 -24268.460022   5403.814557   9326.630326   -116.759358
PG10  11025.786113 -18806.460881 -14770.581981    -44.422417
PG11   6866.902131  19439.342605  16775.090393   -268.167459
PG12  10488.133684  16173.250201  18028.849051   -398.421964
PG13   1438.143881  15299.449430 -21826.076315    544.656881
PG14 -13355.541837  15785.680416 -16562.160806    116.357863
PG15  12648.410984  10495.439639 -21362.658692     56.276457
PG16   -175.061239 -25756.743208  -5711.672497   -482.900714
PG18  20882.139538    729.539713 -16495.916363   -338.487603
PG19 -16484.059293  15733.509447  13152.118308    341.362397
PG20   1470.906012  26548.224410   2015.772946    423.683077
PG21 -19469.285666 -16743.152888  -7821.759642    152.353770
PG22  12877.342264 -17159.946292  16007.631114    510.010362
PG23  14592.604009  -6433.231032 -21206.278831     41.261867
PG24  21410.073333  15493.686349  -4728.899239   -251.707197
PG25  15120.579195   2397.353873  21402.345492    454.941282
PG26   4808.516370 -24992.474574   6831.327994    237.006378
PG27   1925.210703 -16869.851069 -20569.695686      0.668048
PG28   9860.763137 -11719.571600  21679.283422     83.087355
PG29  24279.174734  -2179.572803  10614.726021   -605.059383
PG30 -17018.265235   5897.192211 -19480.496983   -505.616100
PG31  -1123.125861 -17619.243214  19535.045774   -219.712100
PG32  18842.686105 -16504.328395   8710.630785   -517.293696
PJ02 -22550.524182  29543.388856 -15181.840951     -1.202255
PJ03 -27413.409786  23683.216991  26582.877716     -0.000682
PJ04 -30853.902499  28375.458113  10544.863611     96.521771
PR01  -9260.812627  20642.649104 -11765.616531     61.018667
PR02   4371.664895  11090.781975 -22514.822020    -22.618530
PR03  15702.900316  -4366.009682 -19555.194627     81.185950
PR04  18087.349518 -16971.023299  -5905.669194    194.299483
PR05  10755.130128 -20357.448570  10968.323720    115.475180
PR07 -16108.008769   5111.626154  19165.534424     59.757301
PR08 -18021.754791  17126.823401   5832.336419    -71.586679
PR09 -11900.752945 -21739.967489  -6190.400424    130.158045
PR11  -8237.307751   8499.373330 -22578.935565    -99.682863
PR12   2619.527939  22692.949158 -11332.338829     28.886516
PR13  10901.905460  22655.465478   4293.623838    -36.888824
PR14  13529.906925   8429.453689  19923.268085     24.916625
PR15   7808.496924  -9770.159522  22257.495007     87.980566
PR16  -2642.173958 -22538.178182  11703.057787     16.458239
PR17  25149.208587   4378.463267   -467.713498     -1.854993
PR18  19568.940908  -3527.181389 -15940.879134     90.630091
PR19   5832.119873  -9209.494884 -23068.587063   -239.170184
PR20 -15837.938441 -11137.671280 -16625.947365    -96.218784
PR21 -25119.708586  -3958.808584   1772.968603    -21.305879
PR22 -19100.785971   3648.749006  16535.407553     91.903392
PR24  16658.188594  10794.832182  16042.257499    -15.674940
PR25 -24885.188601  -5536.010740    376.930830   -656.075035
EOF
